

*******************************************************************************
Ephemeris / WWW_USER Thu May  4 09:42:01 2023 Pasadena, USA      / Horizons
*******************************************************************************
Target body name: Voyager 2 (spacecraft) (-32)    {source: Voyager_2_ST+refit2022_m}
Center body name: Sun (10)                        {source: Voyager_2_ST+refit2022_m}
Center-site name: BODY CENTER
*******************************************************************************
Start time      : A.D. 1977-Aug-20 15:32:32.1830 TDB
Stop  time      : A.D. 2018-Jan-01 00:00:00.0000 TDB
Step-size       : 4320 minutes
*******************************************************************************
Center geodetic : 0.0, 0.0, 0.0                   {E-lon(deg),Lat(deg),Alt(km)}
Center cylindric: 0.0, 0.0, 0.0                   {E-lon(deg),Dxy(km),Dz(km)}
Center radii    : 696000.0, 696000.0, 696000.0 km {Equator_a, b, pole_c}
Output units    : KM-S
Calendar mode   : Mixed Julian/Gregorian
Output type     : GEOMETRIC cartesian states
Output format   : 1 (position only)
Reference frame : Ecliptic of J2000.0
*******************************************************************************
            JDTDB,            Calendar Date (TDB),                      X,                      Y,                      Z,
**************************************************************************************************************************
$$SOE
2452898.147594711, A.D. 2003-Sep-15 15:32:32.1830,  2.869659977212083E+09, -8.898399830544149E+09, -5.121947536127317E+09,
2452901.147594711, A.D. 2003-Sep-18 15:32:32.1830,  2.870780226673581E+09, -8.900908220105873E+09, -5.124940798805131E+09,
2452904.147594711, A.D. 2003-Sep-21 15:32:32.1830,  2.871900466449901E+09, -8.903416551486320E+09, -5.127934024186840E+09,
2452907.147594711, A.D. 2003-Sep-24 15:32:32.1830,  2.873020696591970E+09, -8.905924824782082E+09, -5.130927212307838E+09,
2452910.147594711, A.D. 2003-Sep-27 15:32:32.1830,  2.874140917219882E+09, -8.908433040069223E+09, -5.133920363207942E+09,
2452913.147594711, A.D. 2003-Sep-30 15:32:32.1830,  2.875261128505925E+09, -8.910941197359568E+09, -5.136913476926207E+09,
2452916.147594711, A.D. 2003-Oct-03 15:32:32.1830,  2.876381330629189E+09, -8.913449296576941E+09, -5.139906553494740E+09,
2452919.147594711, A.D. 2003-Oct-06 15:32:32.1830,  2.877501523725828E+09, -8.915957337569450E+09, -5.142899592935049E+09,
2452922.147594711, A.D. 2003-Oct-09 15:32:32.1830,  2.878621707861311E+09, -8.918465320146801E+09, -5.145892595258516E+09,
2452925.147594711, A.D. 2003-Oct-12 15:32:32.1830,  2.879741883030716E+09, -8.920973244118689E+09, -5.148885560469458E+09,
2452928.147594711, A.D. 2003-Oct-15 15:32:32.1830,  2.880862049174973E+09, -8.923481109319214E+09, -5.151878488568568E+09,
2452931.147594711, A.D. 2003-Oct-18 15:32:32.1830,  2.881982206199957E+09, -8.925988915616652E+09, -5.154871379555408E+09,
2452934.147594711, A.D. 2003-Oct-21 15:32:32.1830,  2.883102353991767E+09, -8.928496662914076E+09, -5.157864233429810E+09,
2452937.147594711, A.D. 2003-Oct-24 15:32:32.1830,  2.884222492426957E+09, -8.931004351145983E+09, -5.160857050192490E+09,
2452940.147594711, A.D. 2003-Oct-27 15:32:32.1830,  2.885342621378751E+09, -8.933511980273952E+09, -5.163849829845243E+09,
2452943.147594711, A.D. 2003-Oct-30 15:32:32.1830,  2.886462740720572E+09, -8.936019550282675E+09, -5.166842572390886E+09,
2452946.147594711, A.D. 2003-Nov-02 15:32:32.1830,  2.887582850328015E+09, -8.938527061176701E+09, -5.169835277833160E+09,
2452949.147594711, A.D. 2003-Nov-05 15:32:32.1830,  2.888702950079886E+09, -8.941034512977953E+09, -5.172827946176601E+09,
2452952.147594711, A.D. 2003-Nov-08 15:32:32.1830,  2.889823039858747E+09, -8.943541905723858E+09, -5.175820577426418E+09,
2452955.147594711, A.D. 2003-Nov-11 15:32:32.1830,  2.890943119551161E+09, -8.946049239465958E+09, -5.178813171588409E+09,
2452958.147594711, A.D. 2003-Nov-14 15:32:32.1830,  2.892063189047752E+09, -8.948556514269053E+09, -5.181805728668859E+09,
2452961.147594711, A.D. 2003-Nov-17 15:32:32.1830,  2.893183248243126E+09, -8.951063730210457E+09, -5.184798248674520E+09,
2452964.147594711, A.D. 2003-Nov-20 15:32:32.1830,  2.894303297035666E+09, -8.953570887379862E+09, -5.187790731612576E+09,
2452967.147594711, A.D. 2003-Nov-23 15:32:32.1830,  2.895423335327230E+09, -8.956077985879532E+09, -5.190783177490635E+09,
2452970.147594711, A.D. 2003-Nov-26 15:32:32.1830,  2.896543363022806E+09, -8.958585025825058E+09, -5.193775586316797E+09,
2452973.147594711, A.D. 2003-Nov-29 15:32:32.1830,  2.897663380030236E+09, -8.961092007346889E+09, -5.196767958099781E+09,
2452976.147594711, A.D. 2003-Dec-02 15:32:32.1830,  2.898783386260323E+09, -8.963598930592918E+09, -5.199760292849169E+09,
2452979.147594711, A.D. 2003-Dec-05 15:32:32.1830,  2.899903381627908E+09, -8.966105795732454E+09, -5.202752590575841E+09,
2452982.147594711, A.D. 2003-Dec-08 15:32:32.1830,  2.901023366054887E+09, -8.968612602961264E+09, -5.205744851292921E+09,
2452985.147594711, A.D. 2003-Dec-11 15:32:32.1830,  2.902143339477270E+09, -8.971119352508612E+09, -5.208737075016623E+09,
2452988.147594711, A.D. 2003-Dec-14 15:32:32.1830,  2.903263301857973E+09, -8.973626044641766E+09, -5.211729261768250E+09,
2452991.147594711, A.D. 2003-Dec-17 15:32:32.1830,  2.904383253207116E+09, -8.976132679665436E+09, -5.214721411575884E+09,
2452994.147594711, A.D. 2003-Dec-20 15:32:32.1830,  2.905503193606591E+09, -8.978639257907148E+09, -5.217713524475555E+09,
2452997.147594711, A.D. 2003-Dec-23 15:32:32.1830,  2.906623123227457E+09, -8.981145779683508E+09, -5.220705600510143E+09,
2453000.147594711, A.D. 2003-Dec-26 15:32:32.1830,  2.907743042323000E+09, -8.983652245254246E+09, -5.223697639725039E+09,
2453003.147594711, A.D. 2003-Dec-29 15:32:32.1830,  2.908862951190315E+09, -8.986158654787401E+09, -5.226689642161886E+09,
2453006.147594711, A.D. 2004-Jan-01 15:32:32.1830,  2.909982850117881E+09, -8.988665008358082E+09, -5.229681607853726E+09,
2453009.147594711, A.D. 2004-Jan-04 15:32:32.1830,  2.911102739348095E+09, -8.991171305978617E+09, -5.232673536824103E+09,
2453012.147594711, A.D. 2004-Jan-07 15:32:32.1830,  2.912222619068334E+09, -8.993677547637346E+09, -5.235665429089502E+09,
2453015.147594711, A.D. 2004-Jan-10 15:32:32.1830,  2.913342489422617E+09, -8.996183733326702E+09, -5.238657284662793E+09,
2453018.147594711, A.D. 2004-Jan-13 15:32:32.1830,  2.914462350529686E+09, -8.998689863055799E+09, -5.241649103556021E+09,
2453021.147594711, A.D. 2004-Jan-16 15:32:32.1830,  2.915582202498580E+09, -9.001195936852058E+09, -5.244640885782034E+09,
2453024.147594711, A.D. 2004-Jan-19 15:32:32.1830,  2.916702045439015E+09, -9.003701954757458E+09, -5.247632631355246E+09,
2453027.147594711, A.D. 2004-Jan-22 15:32:32.1830,  2.917821879467293E+09, -9.006207916823189E+09, -5.250624340291807E+09,
2453030.147594711, A.D. 2004-Jan-25 15:32:32.1830,  2.918941704708989E+09, -9.008713823104511E+09, -5.253616012609538E+09,
2453033.147594711, A.D. 2004-Jan-28 15:32:32.1830,  2.920061521299705E+09, -9.011219673656380E+09, -5.256607648327724E+09,
2453036.147594711, A.D. 2004-Jan-31 15:32:32.1830,  2.921181329384633E+09, -9.013725468529985E+09, -5.259599247466874E+09,
2453039.147594711, A.D. 2004-Feb-03 15:32:32.1830,  2.922301129117461E+09, -9.016231207770090E+09, -5.262590810048501E+09,
2453042.147594711, A.D. 2004-Feb-06 15:32:32.1830,  2.923420920658878E+09, -9.018736891413055E+09, -5.265582336094896E+09,
2453045.147594711, A.D. 2004-Feb-09 15:32:32.1830,  2.924540704174826E+09, -9.021242519485430E+09, -5.268573825628933E+09,
2453048.147594711, A.D. 2004-Feb-12 15:32:32.1830,  2.925660479834563E+09, -9.023748092003059E+09, -5.271565278673901E+09,
2453051.147594711, A.D. 2004-Feb-15 15:32:32.1830,  2.926780247808589E+09, -9.026253608970705E+09, -5.274556695253348E+09,
2453054.147594711, A.D. 2004-Feb-18 15:32:32.1830,  2.927900008266443E+09, -9.028759070382225E+09, -5.277548075390961E+09,
2453057.147594711, A.D. 2004-Feb-21 15:32:32.1830,  2.929019761374476E+09, -9.031264476221483E+09, -5.280539419110467E+09,
2453060.147594711, A.D. 2004-Feb-24 15:32:32.1830,  2.930139507293462E+09, -9.033769826463749E+09, -5.283530726435711E+09,
2453063.147594711, A.D. 2004-Feb-27 15:32:32.1830,  2.931259246176902E+09, -9.036275121078959E+09, -5.286521997390602E+09,
2453066.147594711, A.D. 2004-Mar-01 15:32:32.1830,  2.932378978169659E+09, -9.038780360035576E+09, -5.289513231999505E+09,
2453069.147594711, A.D. 2004-Mar-04 15:32:32.1830,  2.933498703408501E+09, -9.041285543306522E+09, -5.292504430287749E+09,
2453072.147594711, A.D. 2004-Mar-07 15:32:32.1830,  2.934618422025809E+09, -9.043790670876371E+09, -5.295495592282589E+09,
2453075.147594711, A.D. 2004-Mar-10 15:32:32.1830,  2.935738134158650E+09, -9.046295742748491E+09, -5.298486718014635E+09,
2453078.147594711, A.D. 2004-Mar-13 15:32:32.1830,  2.936857839965137E+09, -9.048800758948210E+09, -5.301477807519621E+09,
2453081.147594711, A.D. 2004-Mar-16 15:32:32.1830,  2.937977539646937E+09, -9.051305719515043E+09, -5.304468860839817E+09,
2453084.147594711, A.D. 2004-Mar-19 15:32:32.1830,  2.939097233469441E+09, -9.053810624476797E+09, -5.307459878023776E+09,
2453087.147594711, A.D. 2004-Mar-22 15:32:32.1830,  2.940216921763154E+09, -9.056315473807419E+09, -5.310450859122978E+09,
2453090.147594711, A.D. 2004-Mar-25 15:32:32.1830,  2.941336604893723E+09, -9.058820267387360E+09, -5.313441804185817E+09,
2453093.147594711, A.D. 2004-Mar-28 15:32:32.1830,  2.942456283209909E+09, -9.061325004992184E+09, -5.316432713251853E+09,
2453096.147594711, A.D. 2004-Mar-31 15:32:32.1830,  2.943575956997866E+09, -9.063829686316589E+09, -5.319423586349535E+09,
2453099.147594711, A.D. 2004-Apr-03 15:32:32.1830,  2.944695626462439E+09, -9.066334311015184E+09, -5.322414423497749E+09,
2453102.147594711, A.D. 2004-Apr-06 15:32:32.1830,  2.945815291733344E+09, -9.068838878737427E+09, -5.325405224709188E+09,
